COMMENT,ORIGINATOR,NORAD_CAT_ID,OBJECT_NAME,OBJECT_TYPE,CLASSIFICATION_TYPE,INTLDES,EPOCH,EPOCH_MICROSECONDS,MEAN_MOTION,ECCENTRICITY,INCLINATION,RA_OF_ASC_NODE,ARG_OF_PERICENTER,MEAN_ANOMALY,EPHEMERIS_TYPE,ELEMENT_SET_NO,REV_AT_EPOCH,BSTAR,MEAN_MOTION_DOT,MEAN_MOTION_DDOT,FILE,TLE_LINE0,TLE_LINE1,TLE_LINE2,OBJECT_ID,OBJECT_NUMBER,SEMIMAJOR_AXIS,PERIOD,APOGEE,PERIGEE,DECAYED,date
GENERATED VIA SPACETRACK.ORG API,18 SPCS,52182,SPACEBEE-128,PAYLOAD,U,22033AB,2023/3/12 13:01,888608,15.36105128,0.0007513,97.3565,154.77,156.0277,204.1318,0,999,5259,0.0022345,0.00079292,0,3858534,0 SPACEBEE-128,1 52182U 22033AB  23071.54238297  .00079292  00000-0  22345-2 0  9998,2 52182  97.3565 154.7700 0007513 156.0277 204.1318 15.36105128 52595,2022-033AB,52182,6835.777,93.744,462.778,452.506,1,
GENERATED VIA SPACETRACK.ORG API,18 SPCS,52182,SPACEBEE-128,PAYLOAD,U,22033AB,2023/3/12 20:50,778144,15.36152019,0.0007519,97.3563,155.0953,155.486,204.6743,0,999,5264,0.0019491,0.00069167,0,3858743,0 SPACEBEE-128,1 52182U 22033AB  23071.86808771  .00069167  00000-0  19491-2 0  9991,2 52182  97.3563 155.0953 0007519 155.4860 204.6743 15.36152019 52648,2022-033AB,52182,6835.638,93.741,462.643,452.363,1,
GENERATED VIA SPACETRACK.ORG API,18 SPCS,52182,SPACEBEE-128,PAYLOAD,U,22033AB,2023/3/13 4:39,872800,15.36195294,0.0007554,97.3563,155.4208,154.6342,205.5275,0,999,5267,0.0017154,0.00060884,0,3859337,0 SPACEBEE-128,1 52182U 22033AB  23072.19378325  .00060884  00000-0  17154-2 0  9996,2 52182  97.3563 155.4208 0007554 154.6342 205.5275 15.36195294 52675,2022-033AB,52182,6835.509,93.738,462.538,452.211,1,
GENERATED VIA SPACETRACK.ORG API,18 SPCS,52182,SPACEBEE-128,PAYLOAD,U,22033AB,2023/3/13 4:39,872800,15.36195294,0.0007554,97.3563,155.4208,154.6342,205.5275,0,999,5269,0.0017154,0.00060884,0,3859425,0 SPACEBEE-128,1 52182U 22033AB  23072.19378325  .00060884  00000-0  17154-2 0  9996,2 52182  97.3563 155.4208 0007554 154.6342 205.5275 15.36195294 52697,2022-033AB,52182,6835.509,93.738,462.538,452.211,1,
GENERATED VIA SPACETRACK.ORG API,18 SPCS,52182,SPACEBEE-128,PAYLOAD,U,22033AB,2023/3/13 15:35,733856,15.36252787,0.0007444,97.3563,155.8772,152.7081,207.4556,0,999,5276,0.0018065,0.00064266,0,3859631,0 SPACEBEE-128,1 52182U 22033AB  23072.64974229  .00064266  00000-0  18065-2 0  9991,2 52182  97.3563 155.8772 0007444 152.7081 207.4556 15.36252787 52766,2022-033AB,52182,6835.339,93.735,462.292,452.116,1,
GENERATED VIA SPACETRACK.ORG API,18 SPCS,52182,SPACEBEE-128,PAYLOAD,U,22033AB,2023/3/14 11:54,663776,15.3636194,0.0007519,97.3563,156.7239,149.7273,210.4406,0,999,5287,0.0020849,0.00074543,0,3860312,0 SPACEBEE-128,1 52182U 22033AB  23073.49647759  .00074543  00000-0  20849-2 0  9992,2 52182  97.3563 156.7239 0007519 149.7273 210.4406 15.36361940 52878,2022-033AB,52182,6835.015,93.728,462.019,451.741,1,
GENERATED VIA SPACETRACK.ORG API,18 SPCS,52182,SPACEBEE-128,PAYLOAD,U,22033AB,2023/3/14 11:54,663776,15.3636194,0.0007519,97.3563,156.7239,149.7273,210.4406,0,999,5289,0.0020849,0.00074543,0,3860373,0 SPACEBEE-128,1 52182U 22033AB  23073.49647759  .00074543  00000-0  20849-2 0  9992,2 52182  97.3563 156.7239 0007519 149.7273 210.4406 15.36361940 52890,2022-033AB,52182,6835.015,93.728,462.019,451.741,1,
GENERATED VIA SPACETRACK.ORG API,18 SPCS,52182,SPACEBEE-128,PAYLOAD,U,22033AB,2023/3/15 11:21,188896,15.36520234,0.0007478,97.3562,157.7009,146.639,213.5327,0,999,5302,0.0021946,0.00078912,0,3861271,0 SPACEBEE-128,1 52182U 22033AB  23074.47339339  .00078912  00000-0  21946-2 0  9996,2 52182  97.3562 157.7009 0007478 146.6390 213.5327 15.36520234 53020,2022-033AB,52182,6834.546,93.718,461.522,451.3,1,
GENERATED VIA SPACETRACK.ORG API,18 SPCS,52182,SPACEBEE-128,PAYLOAD,U,22033AB,2023/3/15 11:21,188896,15.36520234,0.0007478,97.3562,157.7009,146.639,213.5327,0,999,5304,0.0021946,0.00078912,0,3861350,0 SPACEBEE-128,1 52182U 22033AB  23074.47339339  .00078912  00000-0  21946-2 0  9996,2 52182  97.3562 157.7009 0007478 146.6390 213.5327 15.36520234 53042,2022-033AB,52182,6834.546,93.718,461.522,451.3,1,
GENERATED VIA SPACETRACK.ORG API,18 SPCS,52182,SPACEBEE-128,PAYLOAD,U,22033AB,2023/3/16 10:48,72288,15.36675736,0.000735,97.3565,158.678,143.8849,216.2893,0,999,5319,0.0023731,0.00085839,0,3862295,0 SPACEBEE-128,1 52182U 22033AB  23075.45020917  .00085839  00000-0  23731-2 0  9994,2 52182  97.3565 158.6780 0007350 143.8849 216.2893 15.36675736 53190,2022-033AB,52182,6834.085,93.709,460.973,450.927,1,
GENERATED VIA SPACETRACK.ORG API,18 SPCS,52182,SPACEBEE-128,PAYLOAD,U,22033AB,2023/3/16 15:29,576672,15.36693011,0.0007323,97.3566,158.8736,143.016,217.1591,0,999,5320,0.0017255,0.00062235,0,3862576,0 SPACEBEE-128,1 52182U 22033AB  23075.64556223  .00062235  00000-0  17255-2 0  9998,2 52182  97.3566 158.8736 0007323 143.0160 217.1591 15.36693011 53205,2022-033AB,52182,6834.033,93.708,460.903,450.894,1,
GENERATED VIA SPACETRACK.ORG API,18 SPCS,52182,SPACEBEE-128,PAYLOAD,U,22033AB,2023/3/16 15:29,576672,15.36693011,0.0007323,97.3566,158.8736,143.016,217.1591,0,999,5322,0.0017255,0.00062235,0,3862592,0 SPACEBEE-128,1 52182U 22033AB  23075.64556223  .00062235  00000-0  17255-2 0  9998,2 52182  97.3566 158.8736 0007323 143.0160 217.1591 15.36693011 53227,2022-033AB,52182,6834.033,93.708,460.903,450.894,1,
GENERATED VIA SPACETRACK.ORG API,18 SPCS,52182,SPACEBEE-128,PAYLOAD,U,22033AB,2023/3/17 11:48,635808,15.36790062,0.0007358,97.3562,159.72,140.5484,219.6298,0,999,5335,0.0016043,0.00058007,0,3863278,0 SPACEBEE-128,1 52182U 22033AB  23076.49205597  .00058007  00000-0  16043-2 0  9993,2 52182  97.3562 159.7200 0007358 140.5484 219.6298 15.36790062 53357,2022-033AB,52182,6833.746,93.702,460.639,450.582,1,
GENERATED VIA SPACETRACK.ORG API,18 SPCS,52182,SPACEBEE-128,PAYLOAD,U,22033AB,2023/3/18 4:59,347936,15.36874482,0.0007355,97.3566,160.4365,138.7876,221.3925,0,999,5344,0.0015261,0.00055306,0,3863810,0 SPACEBEE-128,1 52182U 22033AB  23077.20827949  .00055306  00000-0  15261-2 0  9994,2 52182  97.3566 160.4365 0007355 138.7876 221.3925 15.36874482 53449,2022-033AB,52182,6833.495,93.697,460.386,450.334,1,
GENERATED VIA SPACETRACK.ORG API,18 SPCS,52182,SPACEBEE-128,PAYLOAD,U,22033AB,2023/3/18 19:03,460928,15.36935468,0.0007231,97.3567,161.0232,136.9413,223.2398,0,999,5355,0.0013785,0.00050012,0,3864479,0 SPACEBEE-128,1 52182U 22033AB  23077.79425302  .00050012  00000-0  13785-2 0  9993,2 52182  97.3567 161.0232 0007231 136.9413 223.2398 15.36935468 53559,2022-033AB,52182,6833.315,93.693,460.121,450.238,1,
GENERATED VIA SPACETRACK.ORG API,18 SPCS,52182,SPACEBEE-128,PAYLOAD,U,22033AB,2023/3/19 10:41,299296,15.37010124,0.0007242,97.3568,161.6748,134.6248,225.5588,0,999,5363,0.001513,0.00055068,0,3865023,0 SPACEBEE-128,1 52182U 22033AB  23078.44530439  .00055068  00000-0  15130-2 0  9996,2 52182  97.3568 161.6748 0007242 134.6248 225.5588 15.37010124 53630,2022-033AB,52182,6833.093,93.688,459.907,450.01,1,
GENERATED VIA SPACETRACK.ORG API,18 SPCS,52182,SPACEBEE-128,PAYLOAD,U,22033AB,2023/3/19 10:41,299296,15.37010124,0.0007242,97.3568,161.6748,134.6248,225.5588,0,999,5365,0.001513,0.00055068,0,3865049,0 SPACEBEE-128,1 52182U 22033AB  23078.44530439  .00055068  00000-0  15130-2 0  9996,2 52182  97.3568 161.6748 0007242 134.6248 225.5588 15.37010124 53652,2022-033AB,52182,6833.093,93.688,459.907,450.01,1,
GENERATED VIA SPACETRACK.ORG API,18 SPCS,52182,SPACEBEE-128,PAYLOAD,U,22033AB,2023/3/19 16:56,905600,15.37042264,0.000716,97.3566,161.9353,133.589,226.595,0,999,5369,0.0016102,0.00058698,0,3865354,0 SPACEBEE-128,1 52182U 22033AB  23078.70571650  .00058698  00000-0  16102-2 0  9997,2 52182  97.3566 161.9353 0007160 133.5890 226.5950 15.37042264 53693,2022-033AB,52182,6832.998,93.686,459.756,449.971,1,
GENERATED VIA SPACETRACK.ORG API,18 SPCS,52182,SPACEBEE-128,PAYLOAD,U,22033AB,2023/3/20 5:26,587200,15.37110755,0.0007231,97.3565,162.4562,132.2278,227.9582,0,999,5375,0.0015435,0.00056371,0,3865895,0 SPACEBEE-128,1 52182U 22033AB  23079.22652300  .00056371  00000-0  15435-2 0  9991,2 52182  97.3565 162.4562 0007231 132.2278 227.9582 15.37110755 53759,2022-033AB,52182,6832.795,93.682,459.601,449.719,1,
GENERATED VIA SPACETRACK.ORG API,18 SPCS,52182,SPACEBEE-128,PAYLOAD,U,22033AB,2023/3/20 5:26,587200,15.37110755,0.0007231,97.3565,162.4562,132.2278,227.9582,0,999,5377,0.0015435,0.00056371,0,3865912,0 SPACEBEE-128,1 52182U 22033AB  23079.22652300  .00056371  00000-0  15435-2 0  9991,2 52182  97.3565 162.4562 0007231 132.2278 227.9582 15.37110755 53771,2022-033AB,52182,6832.795,93.682,459.601,449.719,1,
GENERATED VIA SPACETRACK.ORG API,18 SPCS,52182,SPACEBEE-128,PAYLOAD,U,22033AB,2023/3/20 17:56,516608,15.37169209,0.0007149,97.3562,162.9778,130.1737,230.0135,0,999,5385,0.0016112,0.00058977,0,3866115,0 SPACEBEE-128,1 52182U 22033AB  23079.74730922  .00058977  00000-0  16112-2 0  9992,2 52182  97.3562 162.9778 0007149 130.1737 230.0135 15.37169209 53853,2022-033AB,52182,6832.622,93.679,459.372,449.602,1,
GENERATED VIA SPACETRACK.ORG API,18 SPCS,52182,SPACEBEE-128,PAYLOAD,U,22033AB,2023/3/21 4:52,324256,15.37231811,0.0007156,97.3561,163.4336,129.3298,230.8582,0,999,5392,0.0016425,0.00060256,0,3866730,0 SPACEBEE-128,1 52182U 22033AB  23080.20297829  .00060256  00000-0  16425-2 0  9999,2 52182  97.3561 163.4336 0007156 129.3298 230.8582 15.37231811 53929,2022-033AB,52182,6832.436,93.675,459.191,449.412,1,
GENERATED VIA SPACETRACK.ORG API,18 SPCS,52182,SPACEBEE-128,PAYLOAD,U,22033AB,2023/3/21 4:52,324256,15.37231811,0.0007156,97.3561,163.4336,129.3298,230.8582,0,999,5390,0.0016425,0.00060256,0,3866933,0 SPACEBEE-128,1 52182U 22033AB  23080.20297829  .00060256  00000-0  16425-2 0  9999,2 52182  97.3561 163.4336 0007156 129.3298 230.8582 15.37231811 53907,2022-033AB,52182,6832.436,93.675,459.191,449.412,1,
